EUTELSAT 10B            
1 54259U 22157A   24043.16430198  .00000062  00000+0  00000+0 0  9993
2 54259   0.0523  95.3599 0005033 181.9685 293.4875  1.00270136  4446
GALAXY 35 (G-35)        
1 54741U 22170A   24043.53110213 -.00000167  00000+0  00000+0 0  9995
2 54741   0.0217 121.4173 0001602 209.4016 269.3499  1.00269416  4312
GALAXY 36 (G-36)        
1 54742U 22170B   24043.53416146 -.00000190  00000+0  00000+0 0  9996
2 54742   0.0226 126.5031 0001636 286.6429 192.2289  1.00269135  4199
METEOSAT-12 (MTG-I1)    
1 54743U 22170C   24043.46854727 -.00000013  00000+0  00000+0 0  9994
2 54743   0.3874   3.5960 0000187 254.1958  52.4556  1.00270601  4390
SHIJIAN-23 (SJ-23)      
1 55131U 23002A   24043.68067940 -.00000355  00000+0  00000+0 0  9997
2 55131   1.5067  89.4391 0000955 296.9661 130.3985  1.00094856  4116
USA 340                 
1 55138U 22144E   24038.28344046 -.00000249  00000+0  00000+0 0  9997
2 55138   3.5461  65.4741 0001919 308.6714 179.3951  1.00576761  3167
USA 342                 
1 55263U 23008A   24040.30275076  .00000138  00000+0  00000+0 0  9994
2 55263   0.0447  96.1325 0000444 172.7003   3.0287  1.00269041  3912
LDPE-3A                 
1 55264U 23008B   24043.55416559  .00000079  00000+0  00000+0 0  9992
2 55264   0.9220  88.8493 0000485 116.0330 306.4157  1.01185198  3236
ELEKTRO-L 4             
1 55506U 23016A   24043.14569415 -.00000064  00000+0  00000+0 0  9990
2 55506   0.0749 271.0959 0002494  22.3122  66.5347  1.00270442  3742
AMAZONAS NEXUS          
1 55508U 23017A   24043.51577299 -.00000288  00000+0  00000+0 0  9991
2 55508   0.0369  51.3371 0004296 301.1520 274.1967  1.00268375  3681
CHINASAT 26 (ZX 26)     
1 55686U 23023A   24043.59050012 -.00000359  00000+0  00000+0 0  9991
2 55686   0.0609  81.1066 0002199 309.1591  89.5678  1.00271964  3655
LUCH-5X (OLYMP-K 2)     
1 55841U 23031A   24043.66409546  .00000010  00000+0  00000+0 0  9994
2 55841   0.0131  93.4328 0000885 214.2244  76.1895  1.00270131  3362
GAOFEN-13 02            
1 55912U 23036A   24043.57261699 -.00000237  00000+0  00000+0 0  9995
2 55912   2.2985 303.3855 0004707 314.9013 236.6547  1.00273121  3515
SES-18                  
1 55970U 23038A   24043.49595149 -.00000106  00000+0  00000+0 0  9997
2 55970   0.0626 271.2135 0002866  19.0198 287.2155  1.00272867  3526
SES-19                  
1 55971U 23038B   24043.56513045  .00000082  00000+0  00000+0 0  9993
2 55971   0.0565 286.4481 0001643  34.5549 249.6158  1.00270641  3494
INTELSAT 40E (IS-40E)   
1 56174U 23052A   24042.64302264 -.00000179  00000+0  00000+0 0  9990
2 56174   0.0128 147.3275 0001185 149.5592 344.7734  1.00270495  3233
VIASAT-3                
1 56370U 23060A   24043.55313885 -.00000191  00000+0  00000+0 0  9993
2 56370   0.0311  99.9044 0000830 252.2264 260.1350  1.00272203  2867
ARCTURUS                
1 56371U 23060B   24043.55268619 -.00000238  00000+0  00000+0 0  9990
2 56371   0.5580  89.7929 0004592 227.6269 186.0038  0.99447243  2886
GS-1                    
1 56372U 23060C   24043.55338237 -.00000065  00000+0  00000+0 0  9993
2 56372   0.5230  88.1795 0002374 235.6217 183.1769  1.00271419  2849
BEIDOU-3 G4             
1 56564U 23066A   24043.55225108 -.00000117  00000+0  00000+0 0  9992
2 56564   2.4373 288.2204 0002665 212.9200 359.8088  1.00270204  2816
ARABSAT-7B (BADR-8)     
1 56757U 23075A   24043.28434701  .00000139  00000+0  00000+0 0  9990
2 56757   0.0739  29.5909 0004990 316.5496 284.0556  1.00274295  2553
IRNSS-1J (NVS-01)       
1 56759U 23076A   24043.64549667 -.00000343  00000+0  00000+0 0  9999
2 56759   4.3210 268.8359 0007741   9.3827 225.8713  1.00272545  2537
NUSANTARA TIGA (SATRIA) 
1 57045U 23086A   24043.59971062 -.00000241  00000+0  00000+0 0  9998
2 57045   0.0116 334.9022 0006293 341.3452 187.7857  1.00268008  1184
H2SAT (HEINRICH HERTZ)  
1 57213U 23093A   24043.35327219 -.00000006  00000+0  00000+0 0  9995
2 57213   0.0231 125.8291 0000781  18.0769 125.6705  1.00269088  2339
SYRACUSE 4B             
1 57214U 23093B   24043.35327219 -.00000059  00000+0  00000+0 0  9994
2 57214   0.0198 118.2942 0000522 246.4236 257.8810  1.00269892   932
JUPITER 3 (ECHOSTAR 24) 
1 57479U 23108A   24042.87155238 -.00000155  00000+0  00000+0 0  9997
2 57479   0.0160  92.0302 0001351 223.0571  44.8710  1.00271914  2064
GALAXY 37 (G-37)        
1 57493U 23112A   24043.56669685  .00000043  00000+0  00000+0 0  9996
2 57493   0.0134  82.0156 0002026 242.0521 255.0475  1.00269568  1967
LUDI TANCE-4 01A        
1 57624U 23120A   24043.46653374 -.00000188  00000+0  00000+0 0  9999
2 57624  15.8891 214.7122 0003062 122.4578  62.2821  1.00274492  1963
TJS-10                  
1 58204U 23169A   24043.69803431 -.00000001  00000+0  00000+0 0  9997
2 58204   0.3244  88.9845 0006387 256.5084 221.2839  1.00273184  1093
CHINASAT 6E (ZX 6E)     
1 58253U 23172A   24043.63545381 -.00000367  00000+0  00000+0 0  9991
2 58253   0.0524 255.7116 0000691 163.3507  67.3759  1.00272499  1084
YAOGAN-41               
1 58582U 23197A   24043.64208287 -.00000366  00000+0  00000+0 0  9994
2 58582   4.8707 307.7178 0014355 165.0142  23.8727  1.00274569   740
